NORAD_CAT_ID,OBJECT_NAME,OBJECT_TYPE,EPOCH,MEAN_MOTION,ECCENTRICITY,INCLINATION,RA_OF_ASC_NODE,ARG_OF_PERICENTER,MEAN_ANOMALY,BSTAR,MEAN_MOTION_DOT,MEAN_MOTION_DDOT,TLE_LINE0,TLE_LINE1,TLE_LINE2,SEMIMAJOR_AXIS,PERIOD,APOGEE,PERIGEE,DECAYED
53259.0,STARLINK-4140,PAYLOAD,2023-03-17 14:49:59,15.08835832,0.000142,53.2177,38.6614,115.8458,244.2681,0.00091691,0.00014333,0.0,0 STARLINK-4140,1 53259U 22086T   23076.61805088  .00014333  00000-0  91691-3 0  9999,2 53259  53.2177  38.6614 0001420 115.8458 244.2681 15.08835832 36625,6917.893,95.438,540.74,538.776,0.0
53259.0,STARLINK-4140,PAYLOAD,2023-03-18 14:40:46,15.08853823,7.98e-05,53.2183,34.2015,137.887,222.2184,0.00075413,0.00011739,0.0,0 STARLINK-4140,1 53259U 22086T   23077.61164572  .00011739  00000-0  75413-3 0  9997,2 53259  53.2183  34.2015 0000798 137.8870 222.2184 15.08853823 36778,6917.838,95.437,540.255,539.151,0.0
53259.0,STARLINK-4140,PAYLOAD,2023-03-19 03:23:51,15.08843054,0.0001571,53.2182,31.8211,114.0582,246.0574,0.00022106,3.232e-05,0.0,0 STARLINK-4140,1 53259U 22086T   23078.14156957  .00003232  00000-0  22106-3 0  9994,2 53259  53.2182  31.8211 0001571 114.0582 246.0574 15.08843054 36856,6917.871,95.437,540.823,538.649,0.0
53259.0,STARLINK-4140,PAYLOAD,2023-03-20 06:25:24,15.0885477,9.71e-05,53.2184,26.7677,96.224,263.8863,0.00049167,7.549e-05,0.0,0 STARLINK-4140,1 53259U 22086T   23079.26764734  .00007549  00000-0  49167-3 0  9997,2 53259  53.2184  26.7677 0000971  96.2240 263.8863 15.08854770 37027,6917.835,95.437,540.372,539.029,0.0
53259.0,STARLINK-4140,PAYLOAD,2023-03-21 03:05:25,15.08856475,0.0001243,53.2189,22.903,85.448,274.6654,0.00050892,7.824e-05,0.0,0 STARLINK-4140,1 53259U 22086T   23080.12876729  .00007824  00000-0  50892-3 0  9995,2 53259  53.2189  22.9030 0001243  85.4480 274.6654 15.08856475 37158,6917.83,95.437,540.555,538.835,0.0
53259.0,STARLINK-4140,PAYLOAD,2023-03-22 04:31:36,15.08851584,0.0001088,53.2192,18.1448,100.3419,259.7696,0.0010356,0.00016237,0.0,0 STARLINK-4140,1 53259U 22086T   23081.18861249  .00016237  00000-0  10356-2 0  9991,2 53259  53.2192  18.1448 0001088 100.3419 259.7696 15.08851584 37312,6917.845,95.437,540.463,538.957,0.0
53259.0,STARLINK-4140,PAYLOAD,2023-03-23 04:22:23,15.0885618,0.0001056,53.2183,13.6839,94.2395,265.8718,0.0012986,0.00020449,0.0,0 STARLINK-4140,1 53259U 22086T   23082.18221067  .00020449  00000-0  12986-2 0  9991,2 53259  53.2183  13.6839 0001056  94.2395 265.8718 15.08856180 37461,6917.831,95.437,540.426,538.965,0.0
53259.0,STARLINK-4140,PAYLOAD,2023-03-24 02:37:46,15.08873857,0.0001322,53.2179,9.5219,62.682,297.4306,0.0025123,0.00039959,0.0,0 STARLINK-4140,1 53259U 22086T   23083.10957160  .00039959  00000-0  25123-2 0  9997,2 53259  53.2179   9.5219 0001322  62.6820 297.4306 15.08873857 37600,6917.777,95.435,540.556,538.727,0.0
53259.0,STARLINK-4140,PAYLOAD,2023-03-25 02:28:32,15.0888288,0.0001197,53.2169,5.0621,82.8578,277.255,0.0015689,0.00024799,0.0,0 STARLINK-4140,1 53259U 22086T   23084.10315799  .00024799  00000-0  15689-2 0  9996,2 53259  53.2169   5.0621 0001197  82.8578 277.2550 15.08882880 37750,6917.749,95.435,540.442,538.786,0.0
53259.0,STARLINK-4140,PAYLOAD,2023-03-26 03:54:44,15.08815248,0.0001244,53.2174,0.307,90.9961,269.1174,0.00028673,4.275e-05,0.0,0 STARLINK-4140,1 53259U 22086T   23085.16301750  .00004275  00000-0  28673-3 0  9990,2 53259  53.2174   0.3070 0001244  90.9961 269.1174 15.08815248 37915,6917.956,95.439,540.682,538.96,0.0
53259.0,STARLINK-4140,PAYLOAD,2023-03-26 22:59:23,15.08827339,0.0001125,53.2168,356.7374,92.9817,267.1304,0.00042567,6.491e-05,0.0,0 STARLINK-4140,1 53259U 22086T   23085.95790606  .00006491  00000-0  42567-3 0  9999,2 53259  53.2168 356.7374 0001125  92.9817 267.1304 15.08827339 38214,6917.919,95.438,540.562,539.006,0.0
53259.0,STARLINK-4140,PAYLOAD,2023-03-27 03:45:32,15.08836872,0.000144,53.2176,355.8434,116.5038,243.6102,0.0010988,0.00017241,0.0,0 STARLINK-4140,1 53259U 22086T   23086.15662149  .00017241  00000-0  10988-2 0  9998,2 53259  53.2176 355.8434 0001440 116.5038 243.6102 15.08836872 38068,6917.89,95.438,540.751,538.759,0.0
53259.0,STARLINK-4140,PAYLOAD,2023-03-27 21:14:46,15.08840296,0.0002074,53.2198,352.5793,137.4095,222.7059,0.00037991,5.763e-05,0.0,0 STARLINK-4140,1 53259U 22086T   23086.88526424  .00005763  00000-0  37991-3 0  9993,2 53259  53.2198 352.5793 0002074 137.4095 222.7059 15.08840296 38179,6917.879,95.438,541.179,538.31,0.0
53259.0,STARLINK-4140,PAYLOAD,2023-03-28 03:36:18,15.08855132,0.0001205,53.2174,351.3836,111.4034,248.7086,0.00060198,9.309e-05,0.0,0 STARLINK-4140,1 53259U 22086T   23087.15021843  .00009309  00000-0  60198-3 0  9994,2 53259  53.2174 351.3836 0001205 111.4034 248.7086 15.08855132 38216,6917.834,95.437,540.533,538.866,0.0
53259.0,STARLINK-4140,PAYLOAD,2023-03-28 21:05:33,15.08846994,0.0001449,53.2178,348.1126,123.3435,236.7696,0.00016991,2.418e-05,0.0,0 STARLINK-4140,1 53259U 22086T   23087.87885859  .00002418  00000-0  16991-3 0  9994,2 53259  53.2178 348.1126 0001449 123.3435 236.7696 15.08846994 38505,6917.859,95.437,540.726,538.722,0.0
53259.0,STARLINK-4140,PAYLOAD,2023-03-28 22:40:56,15.08848934,0.0001346,53.2183,347.8155,108.4874,251.6264,0.00016744,2.379e-05,0.0,0 STARLINK-4140,1 53259U 22086T   23087.94509749  .00002379  00000-0  16744-3 0  9995,2 53259  53.2183 347.8155 0001346 108.4874 251.6264 15.08848934 38330,6917.853,95.437,540.649,538.787,0.0
53259.0,STARLINK-4140,PAYLOAD,2023-03-29 00:16:19,15.08850868,0.0001262,53.2177,347.5182,108.6572,251.4557,0.00022451,3.288e-05,0.0,0 STARLINK-4140,1 53259U 22086T   23088.01133658  .00003288  00000-0  22451-3 0  9998,2 53259  53.2177 347.5182 0001262 108.6572 251.4557 15.08850868 38527,6917.847,95.437,540.585,538.839,0.0
53259.0,STARLINK-4140,PAYLOAD,2023-03-30 03:17:52,15.08853972,0.0001134,53.2178,342.4625,113.9814,246.1297,0.00069662,0.0001082,0.0,0 STARLINK-4140,1 53259U 22086T   23089.13741597  .00010820  00000-0  69662-3 0  9994,2 53259  53.2178 342.4625 0001134 113.9814 246.1297 15.08853972 38510,6917.838,95.437,540.487,538.918,0.0
53259.0,STARLINK-4140,PAYLOAD,2023-03-31 03:08:39,15.08853901,0.0001224,53.2175,338.0014,110.8071,249.3052,0.0011584,0.00018203,0.0,0 STARLINK-4140,1 53259U 22086T   23090.13101830  .00018203  00000-0  11584-2 0  9998,2 53259  53.2175 338.0014 0001224 110.8071 249.3052 15.08853901 38663,6917.838,95.437,540.55,538.856,0.0
53259.0,STARLINK-4140,PAYLOAD,2023-03-31 15:51:45,15.08840956,0.0001183,53.2173,335.6236,99.8214,260.2912,0.00064177,9.941e-05,0.0,0 STARLINK-4140,1 53259U 22086T   23090.66094022  .00009941  00000-0  64177-3 0  9996,2 53259  53.2173 335.6236 0001183  99.8214 260.2912 15.08840956 38741,6917.877,95.437,540.561,538.924,0.0
53259.0,STARLINK-4140,PAYLOAD,2023-04-01 01:24:04,15.08854987,9.77e-05,53.2172,333.8389,98.9852,261.125,0.0013715,0.00021616,0.0,0 STARLINK-4140,1 53259U 22086T   23091.05837971  .00021616  00000-0  13715-2 0  9992,2 53259  53.2172 333.8389 0000977  98.9852 261.1250 15.08854987 38808,6917.835,95.437,540.375,539.024,0.0
53259.0,STARLINK-4140,PAYLOAD,2023-04-01 22:04:05,15.08837486,0.0001072,53.2169,329.9725,77.1987,282.9124,0.00082774,0.00012909,0.0,0 STARLINK-4140,1 53259U 22086T   23091.91950978  .00012909  00000-0  82774-3 0  9997,2 53259  53.2169 329.9725 0001072  77.1987 282.9124 15.08837486 39110,6917.888,95.438,540.495,539.011,0.0
53259.0,STARLINK-4140,PAYLOAD,2023-04-02 02:50:14,15.08848798,0.0001144,53.2165,329.0811,68.9337,291.1777,0.0010948,0.00017183,0.0,0 STARLINK-4140,1 53259U 22086T   23092.11822909  .00017183  00000-0  10948-2 0  9994,2 53259  53.2165 329.0811 0001144  68.9337 291.1777 15.08848798 38966,6917.853,95.437,540.51,538.927,0.0
53259.0,STARLINK-4140,PAYLOAD,2023-04-02 20:19:29,15.08844851,0.0001511,53.2155,325.8115,71.2721,288.8435,0.00044352,6.779e-05,0.0,0 STARLINK-4140,1 53259U 22086T   23092.84687112  .00006779  00000-0  44352-3 0  9995,2 53259  53.2155 325.8115 0001511  71.2721 288.8435 15.08844851 39071,6917.866,95.437,540.776,538.685,0.0
53259.0,STARLINK-4140,PAYLOAD,2023-04-02 21:54:52,15.08846809,0.0001158,53.217,325.5134,70.4197,289.692,0.00074415,0.00011577,0.0,0 STARLINK-4140,1 53259U 22086T   23092.91310846  .00011577  00000-0  74415-3 0  9995,2 53259  53.2170 325.5134 0001158  70.4197 289.6920 15.08846809 39265,6917.86,95.437,540.526,538.923,0.0
53259.0,STARLINK-4140,PAYLOAD,2023-04-03 01:05:38,15.08851714,0.0001229,53.217,324.9189,67.7418,292.3705,0.0012629,0.00019875,0.0,0 STARLINK-4140,1 53259U 22086T   23093.04558959  .00019875  00000-0  12629-2 0  9996,2 53259  53.2170 324.9189 0001229  67.7418 292.3705 15.08851714 39108,6917.845,95.437,540.56,538.859,0.0
53259.0,STARLINK-4140,PAYLOAD,2023-04-03 18:34:53,15.08848808,0.000115,53.2169,321.6486,73.8787,286.2332,0.00053377,8.219e-05,0.0,0 STARLINK-4140,1 53259U 22086T   23093.77422788  .00008219  00000-0  53377-3 0  9992,2 53259  53.2169 321.6486 0001150  73.8787 286.2332 15.08848808 39210,6917.853,95.437,540.514,538.923,0.0
53259.0,STARLINK-4140,PAYLOAD,2023-04-03 21:45:39,15.08853374,0.0001172,53.2172,321.0543,69.6876,290.4242,0.00065288,0.00010122,0.0,0 STARLINK-4140,1 53259U 22086T   23093.90670679  .00010122  00000-0  65288-3 0  9991,2 53259  53.2172 321.0543 0001172  69.6876 290.4242 15.08853374 39411,6917.84,95.437,540.515,538.894,0.0
53259.0,STARLINK-4140,PAYLOAD,2023-04-04 00:56:25,15.08859608,0.0001107,53.217,320.4583,69.2352,290.8758,0.00079089,0.00012328,0.0,0 STARLINK-4140,1 53259U 22086T   23094.03918475  .00012328  00000-0  79089-3 0  9999,2 53259  53.2170 320.4583 0001107  69.2352 290.8758 15.08859608 39433,6917.82,95.436,540.451,538.92,0.0
53259.0,STARLINK-4140,PAYLOAD,2023-04-04 21:36:26,15.08849793,0.0001096,53.2166,316.5931,75.6613,284.4501,0.0007161,0.0001113,0.0,0 STARLINK-4140,1 53259U 22086T   23094.90030570  .00011130  00000-0  71610-3 0  9998,2 53259  53.2166 316.5931 0001096  75.6613 284.4501 15.08849793 39562,6917.85,95.437,540.474,538.957,0.0
